STARLINK-3219           
1 49724U 21115A   26073.42235583  .00000067  00000+0  22288-4 0  9994
2 49724  53.2169 128.0975 0001303  90.1347 269.9794 15.08842664236244
STARLINK-3218           
1 49725U 21115B   26073.84187838  .00000833  00000+0  70404-4 0  9994
2 49725  53.2166 126.0980 0001223  99.6716 260.4415 15.08835502236318
STARLINK-3242           
1 49727U 21115D   26073.39932650  .00000417  00000+0  44283-4 0  9990
2 49727  53.2164 137.9789 0001335  99.8522 260.2621 15.08839322236105
STARLINK-3240           
1 49728U 21115E   26073.86669502 -.00001061  00000+0 -48599-4 0  9998
2 49728  53.2169 135.8800 0001372  76.9158 283.1987 15.08842264236179
STARLINK-3251           
1 49729U 21115F   26073.85931477  .00001046  00000+0  83763-4 0  9994
2 49729  53.2167 135.7988 0001209  90.1724 269.9407 15.08845633236172
STARLINK-3249           
1 49730U 21115G   26073.89616023  .00004488  00000+0  29988-3 0  9998
2 49730  53.2155 135.9414 0001311  87.0753 273.0389 15.08838016236170
STARLINK-3246           
1 49732U 21115J   26073.57230248  .00001595  00000+0  11824-3 0  9992
2 49732  53.2170 137.3565 0001197  87.5825 272.5304 15.08846401236122
STARLINK-3252           
1 49733U 21115K   26073.88141081  .00001207  00000+0  93891-4 0  9998
2 49733  53.2187 135.8130 0001627  78.9114 281.2061 15.08846158236176
STARLINK-3238           
1 49734U 21115L   26073.83449243  .00001294  00000+0  99348-4 0  9994
2 49734  53.2164 126.0505 0001224  85.4464 274.6668 15.08855588236316
STARLINK-3113           
1 49735U 21115M   26073.87403806  .00001215  00000+0  94390-4 0  9999
2 49735  53.2168 135.7322 0001255  87.9318 272.1818 15.08839397236178
STARLINK-3148           
1 49736U 21115N   26073.83079399  .00000271  00000+0  35125-4 0  9994
2 49736  53.2148 125.9260 0001191  83.6219 276.4909 15.08840319236311
STARLINK-3225           
1 49737U 21115P   26073.83816838  .00000828  00000+0  70117-4 0  9990
2 49737  53.2161 126.0078 0001242  90.9475 269.1660 15.08838097236311
STARLINK-3143           
1 49738U 21115Q   26073.86491212  .00001283  00000+0  98665-4 0  9993
2 49738  53.2168 126.0907 0001404  89.7982 270.3171 15.08840728236314
STARLINK-3155           
1 49739U 21115R   26073.49501817  .00003597  00000+0  24401-3 0  9992
2 49739  53.2168 137.5487 0001301  92.0975 268.0166 15.08832894236111
STARLINK-3226           
1 49740U 21115S   26073.85383916  .00001778  00000+0  12977-3 0  9996
2 49740  53.2151 125.9064 0001929  80.5691 279.5520 15.08848710236317
STARLINK-3244           
1 49741U 21115T   26073.85016938  .00001051  00000+0  84103-4 0  9999
2 49741  53.2156 125.9650 0001190  92.8103 267.3026 15.08838296236312
STARLINK-3202           
1 49742U 21115U   26073.53274590 -.00001311  00000+0 -64315-4 0  9999
2 49742  53.2178 127.3772 0001468  88.8462 271.2698 15.08827749236263
STARLINK-3239           
1 49743U 21115V   26073.84647599  .00001342  00000+0  10238-3 0  9993
2 49743  53.2168 125.9038 0001181  79.3976 280.7149 15.08841989236313
STARLINK-3231           
1 49744U 21115W   26073.86120333  .00002796  00000+0  19372-3 0  9990
2 49744  53.2167 125.7990 0001193  97.6608 262.4520 15.08835995236316
STARLINK-3241           
1 49745U 21115X   26073.52631963  .00000923  00000+0  76074-4 0  9993
2 49745  53.2169 127.3777 0000740  76.1225 283.9850 15.08843344236269
STARLINK-3233           
1 49746U 21115Y   26073.87862864  .00002541  00000+0  17754-3 0  9995
2 49746  53.2163 125.8265 0001221  97.6830 262.4301 15.08862182236314
STARLINK-3247           
1 49747U 21115Z   26073.47017361 -.00000715  00000+0 -26815-4 0  9998
2 49747  53.2168 127.6598 0001389  87.6289 272.4862 15.08830332236259
STARLINK-3248           
1 49748U 21115AA  26073.84548196  .00000316  00000+0  37935-4 0  9995
2 49748  53.2165 125.5514 0001314  82.8492 277.2649 15.08838355236320
STARLINK-3250           
1 49749U 21115AB  26073.83179416  .00000653  00000+0  59115-4 0  9998
2 49749  53.2154 126.2790 0001184  86.1593 273.9535 15.08841115236300
STARLINK-3236           
1 49750U 21115AC  26073.43065649  .00000454  00000+0  46635-4 0  9990
2 49750  53.2171 127.8502 0001175  84.9259 275.1868 15.08839103236255
STARLINK-3229           
1 49751U 21115AD  26073.87492953  .00007407  00000+0  48249-3 0  9998
2 49751  53.2150 125.7661 0000918  94.8816 265.2281 15.08877581236328
STARLINK-3209           
1 49752U 21115AE  26073.84372766  .00002033  00000+0  14576-3 0  9991
2 49752  53.2166 115.9923 0001243  91.8933 268.2201 15.08846383236452
STARLINK-3200           
1 49753U 21115AF  26073.55850333  .00001715  00000+0  12580-3 0  9990
2 49753  53.2159 127.2650 0001577  86.6411 273.4762 15.08837669236278
