OBJECT_NAME,OBJECT_ID,EPOCH,MEAN_MOTION,ECCENTRICITY,INCLINATION,RA_OF_ASC_NODE,ARG_OF_PERICENTER,MEAN_ANOMALY,EPHEMERIS_TYPE,CLASSIFICATION_TYPE,NORAD_CAT_ID,ELEMENT_SET_NO,REV_AT_EPOCH,BSTAR,MEAN_MOTION_DOT,MEAN_MOTION_DDOT
STARLINK-3219,2021-115A,2026-03-14T10:08:11.543712,15.08842664,.00013033,53.2169,128.0975,90.1347,269.9794,0,U,49724,999,23624,.22287858E-4,.67E-6,0
STARLINK-3218,2021-115B,2026-03-14T20:12:18.292032,15.08835502,.00012237,53.2166,126.0980,99.6716,260.4415,0,U,49725,999,23631,.70404076E-4,.833E-5,0
STARLINK-3242,2021-115D,2026-03-14T09:35:01.809600,15.08839322,.00013353,53.2164,137.9789,99.8522,260.2621,0,U,49727,999,23610,.44282606E-4,.417E-5,0
STARLINK-3240,2021-115E,2026-03-14T20:48:02.449728,15.08842264,.00013726,53.2169,135.8800,76.9158,283.1987,0,U,49728,999,23617,-.48598628E-4,-.1061E-4,0
STARLINK-3251,2021-115F,2026-03-14T20:37:24.796128,15.08845633,.0001209,53.2167,135.7988,90.1724,269.9407,0,U,49729,999,23617,.8376298E-4,.1046E-4,0
STARLINK-3249,2021-115G,2026-03-14T21:30:28.243872,15.08838016,.00013118,53.2155,135.9414,87.0753,273.0389,0,U,49730,999,23617,.29988455E-3,.4488E-4,0
STARLINK-3246,2021-115J,2026-03-14T13:44:06.934272,15.08846401,.00011976,53.2170,137.3565,87.5825,272.5304,0,U,49732,999,23612,.11824429E-3,.1595E-4,0
STARLINK-3252,2021-115K,2026-03-14T21:09:13.893984,15.08846158,.00016276,53.2187,135.8130,78.9114,281.2061,0,U,49733,999,23617,.93890667E-4,.1207E-4,0
STARLINK-3238,2021-115L,2026-03-14T20:01:40.145952,15.08855588,.00012248,53.2164,126.0505,85.4464,274.6668,0,U,49734,999,23631,.99347569E-4,.1294E-4,0
STARLINK-3113,2021-115M,2026-03-14T20:58:36.888384,15.08839397,.00012552,53.2168,135.7322,87.9318,272.1818,0,U,49735,999,23617,.94390357E-4,.1215E-4,0
STARLINK-3148,2021-115N,2026-03-14T19:56:20.600736,15.08840319,.00011917,53.2148,125.9260,83.6219,276.4909,0,U,49736,999,23631,.3512474E-4,.271E-5,0
STARLINK-3225,2021-115P,2026-03-14T20:06:57.748032,15.08838097,.00012426,53.2161,126.0078,90.9475,269.1660,0,U,49737,999,23631,.70117257E-4,.828E-5,0
STARLINK-3143,2021-115Q,2026-03-14T20:45:28.407168,15.08840728,.00014046,53.2168,126.0907,89.7982,270.3171,0,U,49738,999,23631,.98665498E-4,.1283E-4,0
STARLINK-3155,2021-115R,2026-03-14T11:52:49.569888,15.08832894,.00013012,53.2168,137.5487,92.0975,268.0166,0,U,49739,999,23611,.24401351E-3,.3597E-4,0
STARLINK-3226,2021-115S,2026-03-14T20:29:31.703424,15.08848710,.00019295,53.2151,125.9064,80.5691,279.5520,0,U,49740,999,23631,.12976678E-3,.1778E-4,0
STARLINK-3244,2021-115T,2026-03-14T20:24:14.634432,15.08838296,.00011907,53.2156,125.9650,92.8103,267.3026,0,U,49741,999,23631,.8410324E-4,.1051E-4,0
STARLINK-3202,2021-115U,2026-03-14T12:47:09.245760,15.08827749,.00014686,53.2178,127.3772,88.8462,271.2698,0,U,49742,999,23626,-.64315473E-4,-.1311E-4,0
STARLINK-3239,2021-115V,2026-03-14T20:18:55.525536,15.08841989,.00011811,53.2168,125.9038,79.3976,280.7149,0,U,49743,999,23631,.10238264E-3,.1342E-4,0
STARLINK-3231,2021-115W,2026-03-14T20:40:07.967712,15.08835995,.00011933,53.2167,125.7990,97.6608,262.4520,0,U,49744,999,23631,.19371555E-3,.2796E-4,0
STARLINK-3241,2021-115X,2026-03-14T12:37:54.016032,15.08843344,.00007408,53.2169,127.3777,76.1225,283.9850,0,U,49745,999,23626,.76074452E-4,.923E-5,0
STARLINK-3233,2021-115Y,2026-03-14T21:05:13.514496,15.08862182,.00012217,53.2163,125.8265,97.6830,262.4301,0,U,49746,999,23631,.17754234E-3,.2541E-4,0
STARLINK-3247,2021-115Z,2026-03-14T11:17:02.999904,15.08830332,.00013891,53.2168,127.6598,87.6289,272.4862,0,U,49747,999,23625,-.26815253E-4,-.715E-5,0
STARLINK-3248,2021-115AA,2026-03-14T20:17:29.641344,15.08838355,.00013147,53.2165,125.5514,82.8492,277.2649,0,U,49748,999,23632,.37935198E-4,.316E-5,0
STARLINK-3250,2021-115AB,2026-03-14T19:57:47.015424,15.08841115,.00011841,53.2154,126.2790,86.1593,273.9535,0,U,49749,999,23630,.59115247E-4,.653E-5,0
STARLINK-3236,2021-115AC,2026-03-14T10:20:08.720736,15.08839103,.00011758,53.2171,127.8502,84.9259,275.1868,0,U,49750,999,23625,.46635283E-4,.454E-5,0
STARLINK-3229,2021-115AD,2026-03-14T20:59:53.911392,15.08877581,.00009187,53.2150,125.7661,94.8816,265.2281,0,U,49751,999,23632,.48249012E-3,.7407E-4,0
STARLINK-3209,2021-115AE,2026-03-14T20:14:58.069824,15.08846383,.00012431,53.2166,115.9923,91.8933,268.2201,0,U,49752,999,23645,.14575708E-3,.2033E-4,0
STARLINK-3200,2021-115AF,2026-03-14T13:24:14.687712,15.08837669,.00015778,53.2159,127.2650,86.6411,273.4762,0,U,49753,999,23627,.1257982E-3,.1715E-4,0
